P/2011 NO1 (Elenin),e,15.2478,295.8039,263.7813,5.525690,0.0758795,0.77461522,293.3685,08/21.0/2021,2000,g 15.0,4.0
# From MPC 82318
P/2011 P1 (McNaught),e,5.6604,4.2370,348.9545,7.465011,0.0483235,0.32757935,195.5179,08/21.0/2021,2000,g  9.0,4.0
# From MPC 77806
P/2011 Q3 (McNaught),e,6.0574,32.0274,310.9905,4.970710,0.0889358,0.53276945,327.6792,08/21.0/2021,2000,g 13.5,4.0
# From MPC 98558
P/2011 S1 (Gibbs),e,2.6850,218.8716,192.4274,8.584472,0.0391862,0.20070847,100.5797,08/21.0/2021,2000,g  8.0,4.0
# From MPC 79022
P/2011 UA134 (Spacewatch-PANSTARRS),e,10.4408,40.4043,32.4199,5.607065,0.0742336,0.62937445,265.2179,08/21.0/2021,2000,g 17.5,4.0
# From MPC 77406
P/2011 V1 (Boattini),e,7.3755,46.8223,269.3043,3.855733,0.1301798,0.55055994,137.1690,08/21.0/2021,2000,g 15.5,4.0
# From MPC 82718
P/2011 W1 (PANSTARRS),e,3.7186,161.7885,282.7439,4.661612,0.0979264,0.28736225,343.2838,08/21.0/2021,2000,g 11.5,4.0
# From MPC 79342
P/2011 Y2 (Boattini),e,6.3720,309.3639,131.9109,6.239664,0.0632357,0.70953098,218.5912,08/21.0/2021,2000,g 15.0,4.0
# From MPC 94669
P/2012 B1 (PANSTARRS),e,7.6123,36.2120,162.5310,6.529832,0.0590678,0.40923231,174.6637,08/21.0/2021,2000,g  9.0,4.0
# From MPC 78590
P/2012 C3 (PANSTARRS),e,9.0920,135.3677,344.9542,9.748681,0.0323806,0.63011148,359.9758,10/06.0/2011,2000,g 13.0,4.0
# From MPC 84931
P/2012 F2 (PANSTARRS),e,14.7145,227.0300,33.3011,6.330997,0.0618723,0.54217234,188.8644,08/21.0/2021,2000,g 12.0,4.0
# From MPC 79344
P/2012 G1 (PANSTARRS),e,11.6925,282.5440,286.1149,4.172871,0.1156250,0.38072240,359.9500,06/01.0/2012,2000,g 15.0,4.0
# From MPC 80898
P/2012 K3 (Gibbs),e,13.1944,125.8095,172.1989,3.626098,0.1427397,0.42328770,104.8409,08/21.0/2021,2000,g 15.0,4.0
# From MPC 88326
P/2012 NJ (La Sagra),e,84.6620,315.5456,338.3546,8.462096,0.0400394,0.84713626,134.3379,08/21.0/2021,2000,g 14.5,4.0
# From MPC 81470
P/2012 O1 (McNaught),e,7.4308,91.9725,238.2500,3.540795,0.1479288,0.59459051,133.4856,08/21.0/2021,2000,g 17.5,4.0
# From MPC 80899
P/2012 O2 (McNaught),e,24.4847,120.6807,183.4413,3.624301,0.1428459,0.53265454,119.6834,08/21.0/2021,2000,g 17.0,4.0
# From MPC 82720
P/2012 O3 (McNaught),e,16.6160,336.4144,344.7405,4.572834,0.1007920,0.64700548,331.6007,08/21.0/2021,2000,g 16.5,4.0
# From MPC 82320
P/2012 T2 (PANSTARRS),e,12.5597,73.7207,310.4720,5.734336,0.0717760,0.16144668,218.4088,08/21.0/2021,2000,g 10.0,4.0
# From MPC 80900
P/2012 T3 (PANSTARRS),e,9.5666,114.4022,195.4823,6.151406,0.0646015,0.61724285,219.3975,08/21.0/2021,2000,g 15.0,4.0
# From MPC 87914
P/2012 TK8 (Tenagra),e,6.3402,288.9634,128.0278,4.127075,0.1175548,0.27421928,352.2257,08/21.0/2021,2000,g 13.0,4.0
# From MPC 82720
P/2012 U2 (PANSTARRS),e,10.7553,185.3011,228.2591,7.138433,0.0516773,0.49861647,165.6946,08/21.0/2021,2000,g 12.5,4.0
# From MPC 84024
P/2012 US27 (Siding Spring),e,39.3472,49.1824,0.8026,5.166470,0.0839292,0.64773307,262.8294,08/21.0/2021,2000,g 13.5,4.0
# From MPC 82721
P/2012 WA34 (Lemmon-PANSTARRS),e,6.0845,93.9932,354.9771,4.724368,0.0959817,0.34616427,294.6062,08/21.0/2021,2000,g 13.5,4.0
# From MPC 82721
P/2013 AL76 (Catalina),e,144.8460,145.9847,27.0831,6.496872,0.0595179,0.68632629,189.1917,08/21.0/2021,2000,g 16.0,4.0
# From MPC 91612
P/2013 G1 (Kowalski),e,5.4638,221.3737,51.4618,6.890871,0.0544870,0.51260624,153.0008,08/21.0/2021,2000,g 11.0,4.0
# From MPC 84025
P/2013 G4 (PANSTARRS),e,5.9165,339.6380,214.6760,4.440088,0.1053457,0.40947957,328.1371,08/21.0/2021,2000,g 15.0,4.0
# From MPC 91613
P/2013 J2 (McNaught),e,15.5293,289.4115,37.7675,6.222788,0.0634931,0.65767248,185.0103,08/21.0/2021,2000,g 13.0,4.0
# From MPC 86229
P/2013 N3 (PANSTARRS),e,2.1739,17.4681,323.9047,7.391569,0.0490455,0.59331342,134.5044,08/21.0/2021,2000,g 13.0,4.0
# From MPC 85834
P/2013 N5 (PANSTARRS),e,23.4427,187.1588,176.9007,6.798136,0.0556057,0.73222758,165.1541,08/21.0/2021,2000,g 17.0,4.0
# From MPC 85834
P/2013 P1 (PANSTARRS),e,18.7244,160.5944,138.1730,8.573055,0.0392646,0.60578588,121.4792,08/21.0/2021,2000,g 12.0,4.0
# From MPC 94671
P/2013 R3 (Catalina-PANSTARRS),e,0.8653,342.0007,11.1796,3.033496,0.1865473,0.27531700,184.2738,08/21.0/2021,2000,g 14.0,4.0
# From unp
P/2013 R3-A (Catalina-PANSTARRS),e,0.8647,341.9676,11.2185,3.033354,0.1865604,0.27528653,184.3095,08/21.0/2021,2000,g  9.0,4.0
# From MPEC 2015-M77
P/2013 R3-B (Catalina-PANSTARRS),e,0.8659,342.0234,11.1535,3.033573,0.1865402,0.27533199,184.2546,08/21.0/2021,2000,g  9.0,4.0
# From MPC 85835
P/2013 T1 (PANSTARRS),e,24.2909,10.0820,346.1066,5.859762,0.0694839,0.62401191,204.2558,08/21.0/2021,2000,g 16.5,4.0
# From MPC 86643
P/2013 T2 (Schwartz),e,9.4569,0.8048,345.5209,3.490392,0.1511446,0.50125270,95.1149,08/21.0/2021,2000,g 16.0,4.0
# From MPC 91613
P/2013 W1 (PANSTARRS),e,4.6955,117.8472,1.2747,3.489631,0.1511941,0.59273384,52.1210,08/21.0/2021,2000,g 17.5,4.0
# From MPC101095
P/2013 YG46 (Spacewatch),e,7.8561,48.8470,242.5464,3.275714,0.1662437,0.45488018,276.3542,08/21.0/2021,2000,g 10.0,4.0
# From MPC 89728
P/2014 A2 (Hill),e,24.5353,106.6297,356.1916,5.927245,0.0683006,0.64527141,195.9953,08/21.0/2021,2000,g 15.0,4.0
# From MPC 92981
P/2014 A3 (PANSTARRS),e,13.6950,230.0393,213.5339,4.620619,0.0992325,0.24744003,299.8362,08/21.0/2021,2000,g 12.0,4.0
# From MPEC 2021-P47
C/2014 B1 (Schwartz),e,28.4107,161.4209,345.7168,5230,0.0000026,0.99817387,0.0000,09/07.6539/2017,2000,g  4.0,4.0
# From MPC102095
P/2014 C1 (TOTAS),e,2.6894,167.7697,23.9479,3.037750,0.1861556,0.44861587,160.1439,08/21.0/2021,2000,g 15.5,4.0
# From MPC 94280
C/2014 F3 (Sheppard-Trujillo),e,6.5964,326.7404,3.7068,15.28894,0.0164869,0.62784288,1.5194,08/21.0/2021,2000,g  6.0,4.0
# From MPC 98560
P/2014 L2 (NEOWISE),e,5.1995,149.3474,182.6685,6.303758,0.0622737,0.64826530,161.2126,08/21.0/2021,2000,g 12.0,4.0
# From MPC 90769
P/2014 L3 (Hill),e,6.2763,115.4740,178.6674,8.171216,0.0421963,0.77364706,110.0170,08/21.0/2021,2000,g 16.0,4.0
# From MPC 91614
P/2014 M4 (PANSTARRS),e,3.3372,263.2450,147.9599,5.872628,0.0692557,0.59450660,168.3123,08/21.0/2021,2000,g 15.0,4.0
# From MPC103844
P/2014 MG4 (Spacewatch-PANSTARRS),e,9.3710,311.7344,299.1033,5.012152,0.0878350,0.25944924,262.2162,08/21.0/2021,2000,g  9.5,4.0
# From MPC 98560
P/2014 O3 (PANSTARRS),e,7.8042,87.6446,204.6668,7.567425,0.0473459,0.38581885,126.8430,08/21.0/2021,2000,g 10.5,4.0
# From MPEC 2021-P47
C/2014 OE4 (PANSTARRS),h,12/13.0240/2016,81.2915,240.4262,65.8947,1.003211,6.250030,2000,11.0,2.0
# From MPC 91615
P/2014 R5 (Lemmon-PANSTARRS),e,1.0883,126.5604,213.7392,4.056363,0.1206421,0.41374919,316.2074,08/21.0/2021,2000,g 15.0,4.0
# From MPC 91616
P/2014 U4 (PANSTARRS),e,6.4292,11.8896,347.7483,3.506145,0.1501271,0.46488766,28.2955,08/21.0/2021,2000,g 18.0,4.0
# From MPC 95211
P/2014 V1 (PANSTARRS),e,22.5245,166.2002,177.5924,5.480518,0.0768195,0.53442626,184.3957,08/21.0/2021,2000,g 14.0,4.0
# From MPC 93586
P/2014 W1 (PANSTARRS),e,8.8376,246.2445,152.1996,4.462877,0.1045398,0.38883341,271.0541,08/21.0/2021,2000,g 15.5,4.0
# From MPC105542
P/2014 W4 (PANSTARRS),e,15.2766,33.3652,67.7545,6.595818,0.0581837,0.35225332,119.9441,08/21.0/2021,2000,g 11.0,4.0
# From MPEC 2021-P47
P/2014 W12 (Gibbs),e,8.5150,299.3352,36.8128,3.484418,0.1515335,0.51958349,14.9150,08/21.0/2021,2000,g 15.0,4.0
# From MPC 94281
P/2014 X1 (Elenin),e,26.0155,61.5194,33.9373,6.208364,0.0637145,0.70870817,154.4888,08/21.0/2021,2000,g 15.0,4.0
# From MPC 92275
P/2015 A3 (PANSTARRS),e,172.5322,277.2066,249.2940,7.809676,0.0451601,0.85098911,107.3315,08/21.0/2021,2000,g 20.0,4.0
# From MPC 99270
P/2015 B1 (PANSTARRS),e,18.0368,352.9831,188.8921,9.497717,0.0336725,0.36762840,73.0087,08/21.0/2021,2000,g  8.5,4.0
# From MPC109141
P/2015 B4 (Lemmon-PANSTARRS),e,1.7603,266.0276,227.4216,8.527782,0.0395776,0.56007114,94.6256,08/21.0/2021,2000,g 11.0,4.0
# From MPC101096
P/2015 C1 (TOTAS-Gibbs),e,13.8981,348.8103,178.2596,6.581740,0.0583704,0.56029290,134.7826,08/21.0/2021,2000,g 12.5,4.0
# From MPC109141
P/2015 D5 (Kowalski),e,20.5083,74.0608,39.8185,8.965645,0.0367140,0.48893709,99.1300,08/21.0/2021,2000,g  9.0,4.0
# From MPC 96866
P/2015 D6 (Lemmon-PANSTARRS),e,20.2011,45.9657,125.1423,7.142375,0.0516345,0.36153813,115.8127,08/21.0/2021,2000,g 10.5,4.0
# From MPEC 2021-P47
C/2015 ER61 (PANSTARRS),e,6.3308,235.1081,68.3956,517.0401,0.0000838,0.99797902,0.0000,05/10.5142/2017,2000,g 11.0,2.0
# From MPEC 2018-BF5
C/2015 E61-B (PANSTARRS),e,6.3324,235.1432,68.4850,1594,0.0000155,0.99934357,0.0000,05/10.4920/2017,2000,g 13.5,2.0
# From MPC117068
C/2015 H2 (PANSTARRS),h,09/14.0377/2016,33.6462,350.6698,288.1454,1.005631,4.982587,2000,7.5,4.0
# From MPEC 2021-P47
P/2015 HG16 (PANSTARRS),e,18.7764,58.4483,47.6003,4.750396,0.0951940,0.35213969,249.5315,08/21.0/2021,2000,g 12.5,4.0
# From MPC 95213
P/2015 K5 (PANSTARRS),e,39.9448,134.1755,106.3575,6.722775,0.0565433,0.55299508,128.3266,08/21.0/2021,2000,g 13.5,4.0
# From MPC107684
P/2015 M2 (PANSTARRS),e,3.9719,86.5855,225.6278,7.233037,0.0506667,0.18087017,109.9721,08/21.0/2021,2000,g  8.5,4.0
# From MPEC 2021-P47
C/2015 O1 (PANSTARRS),h,02/19.8724/2018,127.2198,299.8499,89.6237,1.001495,3.727771,2000,6.5,4.0
# From MPC 99819
P/2015 P4 (PANSTARRS),e,8.7174,104.7459,280.5750,6.048275,0.0662608,0.58505555,135.1204,08/21.0/2021,2000,g 14.0,4.0
# From MPC102952
P/2015 PD229 (Cameron-ISON),e,2.0263,342.6314,352.5161,7.184836,0.0511775,0.32818369,112.3992,08/21.0/2021,2000,g 11.5,2.0
# From MPC 99819
P/2015 Q1 (Scotti),e,22.3877,202.8544,199.8385,3.474768,0.1521652,0.47804943,333.1289,08/21.0/2021,2000,g 14.0,4.0
# From MPC 96867
P/2015 Q2 (Pimentel),e,146.5122,228.4515,244.5372,7.350083,0.0494613,0.75062878,107.6388,08/21.0/2021,2000,g 15.5,4.0
# From MPC 98562
P/2015 R1 (PANSTARRS),e,22.6841,48.3962,300.4704,5.880084,0.0691240,0.63431876,155.1828,08/21.0/2021,2000,g 14.0,4.0
# From MPC 95734
P/2015 R2 (PANSTARRS),e,15.4835,168.5972,149.7902,4.487533,0.1036794,0.45294558,234.3585,08/21.0/2021,2000,g 14.5,4.0
# From MPC117068
